[{"OBJECT_NAME":"FLOCK 4G-30","OBJECT_ID":"2025-009BY","EPOCH":"2026-03-09T17:00:32.842080","MEAN_MOTION":15.27244548,"ECCENTRICITY":0.00037948,"INCLINATION":97.3969,"RA_OF_ASC_NODE":150.6012,"ARG_OF_PERICENTER":342.4152,"MEAN_ANOMALY":17.6955,"EPHEMERIS_TYPE":0,"CLASSIFICATION_TYPE":"U","NORAD_CAT_ID":62679,"ELEMENT_SET_NO":999,"REV_AT_EPOCH":12134,"BSTAR":0.00049474629,"MEAN_MOTION_DOT":0.00013147,"MEAN_MOTION_DDOT":0},{"OBJECT_NAME":"STARLINK-32905","OBJECT_ID":"2025-027S","EPOCH":"2026-03-09T10:51:38.598048","MEAN_MOTION":15.27563415,"ECCENTRICITY":0.00017967,"INCLINATION":43.002,"RA_OF_ASC_NODE":130.4146,"ARG_OF_PERICENTER":279.7302,"MEAN_ANOMALY":80.3347,"EPHEMERIS_TYPE":0,"CLASSIFICATION_TYPE":"U","NORAD_CAT_ID":62923,"ELEMENT_SET_NO":999,"REV_AT_EPOCH":6150,"BSTAR":0.00068128191,"MEAN_MOTION_DOT":0.00018523,"MEAN_MOTION_DDOT":0}]
