FLOCK 4G-30             
1 62679U 25009BY  26068.70871344  .00013147  00000+0  49475-3 0  9999
2 62679  97.3969 150.6012 0003795 342.4152  17.6955 15.27244548121341
STARLINK-32905          
1 62923U 25027S   26068.45253007  .00018523  00000+0  68128-3 0  9992
2 62923  43.0020 130.4146 0001796 279.7302  80.3347 15.27563415 61501
